ORBCOMM FM05            
1 25117U 97084F   25271.36071044  .00003649  00000+0  10484-2 0  9996
2 25117  45.0133 232.5694 0003704 341.7198  18.3520 14.46268714455547
ORBCOMM FM06            
1 25118U 97084G   25271.90127803  .00003868  00000+0  11053-2 0  9998
2 25118  45.0124 229.5922 0002854 333.3555  58.0805 14.46425131456543
ORBCOMM FM07            
1 25119U 97084H   25271.90841682  .00003597  00000+0  10305-2 0  9995
2 25119  45.0120 230.3195 0004476 348.0709  12.0036 14.46434495456536
ORBCOMM FM03            
1 25158U 98007B   25271.88189691  .00002411  00000+0  88656-3 0  9995
2 25158 107.9619 348.6520 0042570  66.9707 293.5914 14.34735490438915
ORBCOMM FM04            
1 25159U 98007C   25271.77864252  .00002123  00000+0  78426-3 0  9991
2 25159 107.9606 351.7294 0038366  64.3469 296.1627 14.34977954439082
ORBCOMM FM17            
1 25413U 98046A   25270.65617397  .00001728  00000+0  64676-3 0  9991
2 25413  44.9935 133.9398 0003499  13.2318 346.8620 14.35286675417895
ORBCOMM FM18            
1 25414U 98046B   25271.74804271  .00003059  00000+0  10308-2 0  9993
2 25414  44.9932  43.3909 0004314 104.1611 255.9717 14.38825942419166
ORBCOMM FM19            
1 25415U 98046C   25271.80772962  .00003178  00000+0  10732-2 0  9995
2 25415  44.9942  45.2677 0003079 105.5070  48.9024 14.38640293419123
